0 COSMOS 2251 DEB
1 37988U 93036BQP 13281.89376395  .00001290  00000-0  36047-3 0  1673
2 37988 074.0709 108.1923 0098124 219.6392 208.0000 14.44463165595629
0 COSMOS 2251 DEB
1 37988U 93036BQP 13283.21941267  .00001281  00000-0  35784-3 0  1685
2 37988 074.0708 105.7298 0098092 216.8461 261.4562 14.44467187595811
0 COSMOS 2251 DEB
1 37988U 93036BQP 13286.19861347  .00001503  00000-0  41834-3 0  1708
2 37988 074.0711 100.1957 0097975 210.6052 273.5377 14.44476477596241
0 COSMOS 2251 DEB
1 37988U 93036BQP 13288.13672602  .00002635  00000-0  72724-3 0  1718
2 37988 074.0714 096.5955 0097937 206.5663 271.9091 14.44486147596521
0 COSMOS 2251 DEB
1 37988U 93036BQP 13289.17667944  .00002307  00000-0  63780-3 0  1725
2 37988 074.0717 094.6637 0097991 204.4378 279.7594 14.44492954596673
0 COSMOS 2251 DEB
1 37988U 93036BQP 13291.11507093  .00002451  00000-0  67678-3 0  1731
2 37988 074.0720 091.0630 0097905 200.4085 279.6855 14.44501451596950
0 COSMOS 2251 DEB
1 37988U 93036BQP 13292.15431804  .00002923  00000-0  80571-3 0  1744
2 37988 074.0725 089.1343 0097921 198.1580 284.0483 14.44504655597109
0 COSMOS 2251 DEB
1 37988U 93036BQP 13293.80565082  .00003529  00000-0  97090-3 0  1751
2 37988 074.0728 086.0670 0097831 194.7107 231.3277 14.44513434597345
0 COSMOS 2251 DEB
1 37988U 93036BQP 13295.13245722  .00003916  00000-0  10762-2 0  1766
2 37988 074.0730 083.6024 0097729 191.9378 291.0438 14.44520778597531
